{
    "links": {
        "self": "http://www.neowsapp.com/rest/v1/neo/3579928?api_key=iIulBulltgU6a56xZRHN4H3l9WmuAYTsLGpBGhQ2"
    },
    "id": "3579928",
    "neo_reference_id": "3579928",
    "name": "(2011 SM120)",
    "designation": "2011 SM120",
    "nasa_jpl_url": "http://ssd.jpl.nasa.gov/sbdb.cgi?sstr=3579928",
    "absolute_magnitude_h": 22.4,
    "estimated_diameter": {
        "kilometers": {
            "estimated_diameter_min": 0.0880146521,
            "estimated_diameter_max": 0.1968067451
        },
        "meters": {
            "estimated_diameter_min": 88.0146520901,
            "estimated_diameter_max": 196.8067450894
        },
        "miles": {
            "estimated_diameter_min": 0.0546897524,
            "estimated_diameter_max": 0.122290004
        },
        "feet": {
            "estimated_diameter_min": 288.7619911632,
            "estimated_diameter_max": 645.6914415591
        }
    },
    "is_potentially_hazardous_asteroid": false,
    "close_approach_data": [
        {
            "close_approach_date": "2011-09-21",
            "close_approach_date_full": "2011-Sep-21 19:22",
            "epoch_date_close_approach": 1316632920000,
            "relative_velocity": {
                "kilometers_per_second": "2.685638442",
                "kilometers_per_hour": "9668.2983910524",
                "miles_per_hour": "6007.5046308181"
            },
            "miss_distance": {
                "astronomical": "0.2969987609",
                "lunar": "115.5325179901",
                "kilometers": "44430382.023279283",
                "miles": "27607759.2004607854"
            },
            "orbiting_body": "Earth"
        }
    ],
    "orbital_data": {
        "orbit_id": "5",
        "orbit_determination_date": "2017-04-07 21:23:43",
        "first_observation_date": "2011-09-26",
        "last_observation_date": "2011-11-01",
        "data_arc_in_days": 36,
        "observations_used": 33,
        "orbit_uncertainty": "6",
        "minimum_orbit_intersection": ".295741",
        "jupiter_tisserand_invariant": "3.561",
        "epoch_osculation": "2459000.5",
        "eccentricity": ".4060596052719658",
        "semi_major_axis": "2.18671810831968",
        "inclination": "4.507412949674285",
        "ascending_node_longitude": "189.9615414457305",
        "orbital_period": "1181.102609240438",
        "perihelion_distance": "1.298780216414331",
        "perihelion_argument": "167.7169324047926",
        "aphelion_distance": "3.074656000225029",
        "perihelion_time": "2459368.884291284260",
        "mean_anomaly": "247.7164915014287",
        "mean_motion": ".3047999362489889",
        "equinox": "J2000",
        "orbit_class": {
            "orbit_class_type": "AMO",
            "orbit_class_description": "Near-Earth asteroid orbits similar to that of 1221 Amor",
            "orbit_class_range": "1.017 AU < q (perihelion) < 1.3 AU"
        }
    },
    "is_sentry_object": false
}